STARLINK-1775
1 26681C 20073M   21325.14150681  .00002832  00000-0  18970-3 0  3252
2 26681  53.0546 102.6001 0001354  80.3665  43.7004 15.06407842    17
